<?xml version="1.0" encoding="UTF-8"?>
<kml xmlns="http://www.opengis.net/kml/2.2" xmlns:gx="http://www.google.com/kml/ext/2.2" xmlns:kml="http://www.opengis.net/kml/2.2" xmlns:atom="http://www.w3.org/2005/Atom">
<Document>
	<name>CASE STUDY PULAU DI JOHOR.kml</name>
	<StyleMap id="m_ylw-pushpin">
		<Pair>
			<key>normal</key>
			<styleUrl>#s_ylw-pushpin</styleUrl>
		</Pair>
		<Pair>
			<key>highlight</key>
			<styleUrl>#s_ylw-pushpin_hl</styleUrl>
		</Pair>
	</StyleMap>
	<Style id="s_ylw-pushpin">
		<IconStyle>
			<scale>1.1</scale>
			<Icon>
				<href>http://maps.google.com/mapfiles/kml/pushpin/ylw-pushpin.png</href>
			</Icon>
			<hotSpot x="20" y="2" xunits="pixels" yunits="pixels"/>
		</IconStyle>
	</Style>
	<Style id="s_ylw-pushpin_hl">
		<IconStyle>
			<scale>1.3</scale>
			<Icon>
				<href>http://maps.google.com/mapfiles/kml/pushpin/ylw-pushpin.png</href>
			</Icon>
			<hotSpot x="20" y="2" xunits="pixels" yunits="pixels"/>
		</IconStyle>
	</Style>
	<Folder>
		<name>CASE STUDY PULAU DI JOHOR</name>
		<visibility>0</visibility>
		<open>1</open>
		<Placemark>
			<name>Pulau Mensirip</name>
			<visibility>0</visibility>
			<LookAt>
				<longitude>103.9597200816461</longitude>
				<latitude>2.551057229627324</latitude>
				<altitude>0</altitude>
				<heading>-9.061965730476523e-09</heading>
				<tilt>6.167470460231524</tilt>
				<range>797.4621943237335</range>
				<gx:altitudeMode>relativeToSeaFloor</gx:altitudeMode>
			</LookAt>
			<styleUrl>#m_ylw-pushpin</styleUrl>
			<Point>
				<gx:drawOrder>1</gx:drawOrder>
				<coordinates>103.9597173801569,2.550964148689063,0</coordinates>
			</Point>
		</Placemark>
		<Placemark>
			<name>Pulau Tengah</name>
			<visibility>0</visibility>
			<LookAt>
				<longitude>103.9602779998481</longitude>
				<latitude>2.476944001404313</latitude>
				<altitude>0</altitude>
				<heading>-6.558204360843974e-12</heading>
				<tilt>0</tilt>
				<range>4504.756422325026</range>
				<gx:altitudeMode>relativeToSeaFloor</gx:altitudeMode>
			</LookAt>
			<styleUrl>#m_ylw-pushpin</styleUrl>
			<Point>
				<gx:drawOrder>1</gx:drawOrder>
				<coordinates>103.9602627345952,2.476577891113982,0</coordinates>
			</Point>
		</Placemark>
		<Placemark>
			<name>Pulau Kukup</name>
			<visibility>0</visibility>
			<LookAt>
				<longitude>103.4252645429145</longitude>
				<latitude>1.321876866288666</latitude>
				<altitude>0</altitude>
				<heading>1.170683985403192e-06</heading>
				<tilt>1.989948478403722</tilt>
				<range>7147.026715042836</range>
				<gx:altitudeMode>relativeToSeaFloor</gx:altitudeMode>
			</LookAt>
			<styleUrl>#m_ylw-pushpin</styleUrl>
			<Point>
				<gx:drawOrder>1</gx:drawOrder>
				<coordinates>103.4250948230764,1.321295121077456,0</coordinates>
			</Point>
		</Placemark>
		<Placemark>
			<name>Pulau Harimau</name>
			<visibility>0</visibility>
			<LookAt>
				<longitude>103.9441286998651</longitude>
				<latitude>2.559315999811404</latitude>
				<altitude>0</altitude>
				<heading>-6.028045652377527e-12</heading>
				<tilt>0</tilt>
				<range>1126.156349386268</range>
				<gx:altitudeMode>relativeToSeaFloor</gx:altitudeMode>
			</LookAt>
			<styleUrl>#m_ylw-pushpin</styleUrl>
			<Point>
				<gx:drawOrder>1</gx:drawOrder>
				<coordinates>103.944132542825,2.559200828131255,0</coordinates>
			</Point>
		</Placemark>
		<Placemark>
			<name>Pulau Rawa</name>
			<visibility>0</visibility>
			<LookAt>
				<longitude>103.9758810997851</longitude>
				<latitude>2.520353000425307</latitude>
				<altitude>0</altitude>
				<heading>-9.437103309237435e-12</heading>
				<tilt>0</tilt>
				<range>1126.190229376273</range>
				<gx:altitudeMode>relativeToSeaFloor</gx:altitudeMode>
			</LookAt>
			<styleUrl>#m_ylw-pushpin</styleUrl>
			<Point>
				<gx:drawOrder>1</gx:drawOrder>
				<coordinates>103.9758926039286,2.5202610531038,0</coordinates>
			</Point>
		</Placemark>
		<Placemark>
			<name>Pulau Sibu</name>
			<visibility>0</visibility>
			<LookAt>
				<longitude>104.0625302759293</longitude>
				<latitude>2.226790323404071</latitude>
				<altitude>0</altitude>
				<heading>3.459443748685361e-06</heading>
				<tilt>2.363365329799763</tilt>
				<range>6773.238300730881</range>
				<gx:altitudeMode>relativeToSeaFloor</gx:altitudeMode>
			</LookAt>
			<styleUrl>#m_ylw-pushpin</styleUrl>
			<Point>
				<gx:drawOrder>1</gx:drawOrder>
				<coordinates>104.0624156967377,2.225821058150646,0</coordinates>
			</Point>
		</Placemark>
	</Folder>
</Document>
</kml>
